NORAD_CAT_ID,OBJECT_NAME,OBJECT_TYPE,EPOCH,MEAN_MOTION,ECCENTRICITY,INCLINATION,RA_OF_ASC_NODE,ARG_OF_PERICENTER,MEAN_ANOMALY,BSTAR,MEAN_MOTION_DOT,MEAN_MOTION_DDOT,TLE_LINE0,TLE_LINE1,TLE_LINE2,SEMIMAJOR_AXIS,PERIOD,APOGEE,PERIGEE,DECAYED
53293.0,STARLINK-4148,PAYLOAD,2022-09-28 14:00:01,15.73273394,0.0002514,53.2165,76.4361,19.0909,218.288,-0.0023369,-0.003176,0.0,0 STARLINK-4148,1 53293U 22086BD  22271.58334491 -.00317600  00000-0 -23369-2 0  9995,2 53293  53.2165  76.4361 0002514  19.0909 218.2880 15.73273394  1300,6727.686,91.529,351.242,347.86,0.0
53293.0,STARLINK-4148,PAYLOAD,2022-09-28 22:00:00,15.73174064,0.0002842,53.2157,74.8027,10.5067,315.8082,8.481399999999999e-05,0.00011286,0.0,0 STARLINK-4148,1 53293U 22086BD  22271.91667824  .00011286  00000-0  84814-4 0  9994,2 53293  53.2157  74.8027 0002842  10.5067 315.8082 15.73174064  1309,6727.969,91.535,351.746,347.922,0.0
53293.0,STARLINK-4148,PAYLOAD,2022-09-29 14:00:01,15.73176667,0.0002714,53.2157,71.5026,13.5356,130.5397,0.00024486,0.00033852,0.0,0 STARLINK-4148,1 53293U 22086BD  22272.58334491  .00033852  00000-0  24486-3 0  9990,2 53293  53.2157  71.5026 0002714  13.5356 130.5397 15.73176667 11183,6727.962,91.535,351.653,348.001,0.0
53293.0,STARLINK-4148,PAYLOAD,2022-09-29 22:00:00,15.73182606,0.0002963,53.2153,69.8545,11.0693,221.9233,0.00078445,0.00110868,0.0,0 STARLINK-4148,1 53293U 22086BD  22272.91667824  .00110868  00000-0  78445-3 0  9993,2 53293  53.2153  69.8545 0002963  11.0693 221.9233 15.73182606  1305,6727.945,91.534,351.80300000000005,347.816,0.0
53293.0,STARLINK-4148,PAYLOAD,2022-09-30 14:00:01,15.73292742,0.0002897,53.216,66.5542,10.3193,40.6116,-0.00039751,-0.00056274,0.0,0 STARLINK-4148,1 53293U 22086BD  22273.58334491 -.00056274  00000-0 -39751-3 0  9997,2 53293  53.2160  66.5542 0002897  10.3193  40.6116 15.73292742  1306,6727.630999999999,91.528,351.445,347.547,0.0
53293.0,STARLINK-4148,PAYLOAD,2022-09-30 16:00:00,15.7329406,0.0002996,53.2158,66.1422,10.7573,152.428,-0.00053554,-0.00075434,0.0,0 STARLINK-4148,1 53293U 22086BD  22273.66667824 -.00075434  00000-0 -53554-3 0  9991,2 53293  53.2158  66.1422 0002996  10.7573 152.4280 15.73294060 11357,6727.627,91.528,351.5080000000001,347.476,0.0
53293.0,STARLINK-4148,PAYLOAD,2022-09-30 22:00:00,15.73248884,0.0003165,53.2158,64.9057,10.2858,129.6692,-0.00017037,-0.00024521,0.0,0 STARLINK-4148,1 53293U 22086BD  22273.91667824 -.00024521  00000-0 -17037-3 0  9996,2 53293  53.2158  64.9057 0003165  10.2858 129.6692 15.73248884  1307,6727.755999999999,91.53,351.75,347.491,0.0
53293.0,STARLINK-4148,PAYLOAD,2022-10-01 06:00:00,15.73174482,0.0003037,53.216,63.2541,10.5747,218.3699,0.00054704,0.00076785,0.0,0 STARLINK-4148,1 53293U 22086BD  22274.25001157  .00076785  00000-0  54704-3 0  9994,2 53293  53.2160  63.2541 0003037  10.5747 218.3699 15.73174482 11449,6727.968000000003,91.535,351.876,347.79,0.0
53293.0,STARLINK-4148,PAYLOAD,2022-10-01 14:00:01,15.73260985,0.0003098,53.2158,61.6058,10.4464,307.3932,-0.00073995,-0.00103503,0.0,0 STARLINK-4148,1 53293U 22086BD  22274.58334491 -.00103503  00000-0 -73995-3 0  9994,2 53293  53.2158  61.6058 0003098  10.4464 307.3932 15.73260985 11491,6727.721,91.53,351.671,347.50199999999984,0.0
53293.0,STARLINK-4148,PAYLOAD,2022-10-01 22:00:00,15.73183722,0.0003351,53.2151,59.9572,6.9969,39.7991,-0.00035609,-0.00050282,0.0,0 STARLINK-4148,1 53293U 22086BD  22274.91667824 -.00050282  00000-0 -35609-3 0  9995,2 53293  53.2151  59.9572 0003351   6.9969  39.7991 15.73183722  1300,6727.941999999999,91.534,352.061,347.552,0.0
53293.0,STARLINK-4148,PAYLOAD,2022-10-02 06:00:00,15.73101491,0.000312,53.2153,58.3059,9.2271,126.4631,0.00070737,0.00099431,0.0,0 STARLINK-4148,1 53293U 22086BD  22275.25001157  .00099431  00000-0  70737-3 0  9992,2 53293  53.2153  58.3059 0003120   9.2271 126.4631 15.73101491 11603,6728.176,91.539,352.14,347.94199999999995,0.0
53293.0,STARLINK-4148,PAYLOAD,2022-10-02 14:00:01,15.73184571,0.0003327,53.2157,56.6576,10.4728,214.0699,0.00037623,0.00052487,0.0,0 STARLINK-4148,1 53293U 22086BD  22275.58334491  .00052487  00000-0  37623-3 0  9995,2 53293  53.2157  56.6576 0003327  10.4728 214.0699 15.73184571  1306,6727.939,91.534,352.043,347.566,0.0
53293.0,STARLINK-4148,PAYLOAD,2022-10-02 22:00:00,15.73247999,0.0003548,53.2155,55.0089,7.5451,305.9226,-0.00012886,-0.00018712,0.0,0 STARLINK-4148,1 53293U 22086BD  22275.91667824 -.00018712  00000-0 -12886-3 0  9990,2 53293  53.2155  55.0089 0003548   7.5451 305.9226 15.73247999  1301,6727.7580000000025,91.53,352.01,347.236,0.0
53293.0,STARLINK-4148,PAYLOAD,2022-10-03 06:00:00,15.73231913,0.0003382,53.2155,53.3573,8.1686,34.284,1.5139e-05,1.505e-05,0.0,0 STARLINK-4148,1 53293U 22086BD  22276.25001157  .00001505  00000-0  15139-4 0  9994,2 53293  53.2155  53.3573 0003382   8.1686  34.2840 15.73231913 11767,6727.804,91.531,351.945,347.394,0.0
53293.0,STARLINK-4148,PAYLOAD,2022-10-03 14:00:01,15.73250498,0.0003583,53.2152,51.709,8.7851,122.6414,-0.00039592,-0.00055962,0.0,0 STARLINK-4148,1 53293U 22086BD  22276.58334491 -.00055962  00000-0 -39592-3 0  9996,2 53293  53.2152  51.7090 0003583   8.7851 122.6414 15.73250498  1300,6727.751,91.53,352.027,347.206,0.0
53293.0,STARLINK-4148,PAYLOAD,2022-10-03 22:00:00,15.73224469,0.0003722,53.2146,50.0599,5.8169,214.5674,-0.00026774,-0.00038085,0.0,0 STARLINK-4148,1 53293U 22086BD  22276.91667824 -.00038085  00000-0 -26774-3 0  9997,2 53293  53.2146  50.0599 0003722   5.8169 214.5674 15.73224469  1302,6727.825,91.532,352.195,347.186,0.0
53293.0,STARLINK-4148,PAYLOAD,2022-10-04 14:00:01,15.73219328,0.0003785,53.2151,46.7602,9.6277,28.6593,-0.00058099,-0.00081482,0.0,0 STARLINK-4148,1 53293U 22086BD  22277.58334491 -.00081482  00000-0 -58099-3 0  9996,2 53293  53.2151  46.7602 0003785   9.6277  28.6593 15.73219328  1308,6727.84,91.532,352.25199999999984,347.159,0.0
53293.0,STARLINK-4148,PAYLOAD,2022-10-04 16:00:00,15.73185482,0.000389,53.2151,46.3482,9.4443,141.0823,-0.00017343,-0.00024888,0.0,0 STARLINK-4148,1 53293U 22086BD  22277.66667824 -.00024888  00000-0 -17343-3 0  9998,2 53293  53.2151  46.3482 0003890   9.4443 141.0823 15.73185482 11984,6727.937,91.534,352.4190000000001,347.184,0.0
53293.0,STARLINK-4148,PAYLOAD,2022-10-04 22:00:00,15.73186333,0.000398,53.2151,45.1109,7.2544,119.9442,-0.00010724,-0.00015645,0.0,0 STARLINK-4148,1 53293U 22086BD  22277.91667824 -.00015645  00000-0 -10724-3 0  9993,2 53293  53.2151  45.1109 0003980   7.2544 119.9442 15.73186333  1307,6727.934,91.534,352.477,347.121,0.0
53293.0,STARLINK-4148,PAYLOAD,2022-10-05 06:00:00,15.73161383,0.0003815,53.2154,43.4573,7.6332,208.4785,0.00013666,0.00018573,0.0,0 STARLINK-4148,1 53293U 22086BD  22278.25001157  .00018573  00000-0  13666-3 0  9991,2 53293  53.2154  43.4573 0003815   7.6332 208.4785 15.73161383 12070,6728.005,91.535,352.43699999999984,347.30400000000014,0.0
53293.0,STARLINK-4148,PAYLOAD,2022-10-05 14:00:01,15.73174082,0.0004073,53.2149,41.8117,9.7623,295.2691,1.5853e-05,1.599e-05,0.0,0 STARLINK-4148,1 53293U 22086BD  22278.58335648  .00001599  00000-0  15853-4 0  9993,2 53293  53.2149  41.8117 0004073   9.7623 295.2691 15.73174082  1307,6727.969,91.535,352.574,347.094,0.0
53293.0,STARLINK-4148,PAYLOAD,2022-10-05 22:00:00,15.73161634,0.0004173,53.2144,40.1623,7.6343,26.2338,0.00045797,0.00064061,0.0,0 STARLINK-4148,1 53293U 22086BD  22278.91667824  .00064061  00000-0  45797-3 0  9996,2 53293  53.2144  40.1623 0004173   7.6343  26.2338 15.73161634  1302,6728.005,91.535,352.677,347.06199999999984,0.0
53293.0,STARLINK-4148,PAYLOAD,2022-10-06 06:00:00,15.73015925,0.0003933,53.2161,38.4913,11.3878,111.483,0.0017364999999999,0.00248517,0.0,0 STARLINK-4148,1 53293U 22086BD  22279.25001157  .00248517  00000-0  17365-2 0  9994,2 53293  53.2161  38.4913 0003933  11.3878 111.4830 15.73015925 12230,6728.42,91.544,352.931,347.639,0.0
53293.0,STARLINK-4148,PAYLOAD,2022-10-06 14:00:01,15.73177169,0.0004194,53.215,36.8631,3.1710000000000003,208.5264,0.00055766,0.00078328,0.0,0 STARLINK-4148,1 53293U 22086BD  22279.58334491  .00078328  00000-0  55766-3 0  9999,2 53293  53.2150  36.8631 0004194   3.1710 208.5264 15.73177169  1305,6727.96,91.535,352.647,347.004,0.0
53293.0,STARLINK-4148,PAYLOAD,2022-10-06 22:42:55,15.73271377,0.0004164,53.2153,35.0601,1.3865,108.0397,-0.00038167,-0.0005404,0.0,0 STARLINK-4148,1 53293U 22086BD  22279.94646991 -.00054040  00000-0 -38167-3 0  9993,2 53293  53.2153  35.0601 0004164   1.3865 108.0397 15.73271377  1301,6727.691999999999,91.529,352.358,346.755,0.0
53293.0,STARLINK-4148,PAYLOAD,2022-10-07 00:00:00,15.73275304,0.0004106,53.2156,34.7934,1.2994,51.5455,-0.00047622,-0.00067179,0.0,0 STARLINK-4148,1 53293U 22086BD  22280.00001157 -.00067179  00000-0 -47622-3 0  9994,2 53293  53.2156  34.7934 0004106   1.2994  51.5455 15.73275304 12355,6727.68,91.529,352.30800000000005,346.783,0.0
53293.0,STARLINK-4148,PAYLOAD,2022-10-07 14:00:01,15.73249104,0.0004253,53.2149,31.9144,1.8416,116.7228,-0.00032338,-0.00045883,0.0,0 STARLINK-4148,1 53293U 22086BD  22280.58334491 -.00045883  00000-0 -32338-3 0  9993,2 53293  53.2149  31.9144 0004253   1.8416 116.7228 15.73249104  1301,6727.755,91.53,352.481,346.759,0.0
53293.0,STARLINK-4148,PAYLOAD,2022-10-07 22:00:00,15.73216364,0.0004222999999999,53.2145,30.2645,359.5128,207.9962,2.401800000000001e-05,2.751e-05,0.0,0 STARLINK-4148,1 53293U 22086BD  22280.91667824  .00002751  00000-0  24018-4 0  9991,2 53293  53.2145  30.2645 0004223 359.5128 207.9962 15.73216364  1305,6727.849,91.532,352.555,346.872,0.0
53293.0,STARLINK-4148,PAYLOAD,2022-10-08 06:00:00,15.73188881,0.0004038999999999,53.2149,28.6133,1.8816,294.5967,0.00047466,0.00066514,0.0,0 STARLINK-4148,1 53293U 22086BD  22281.25001157  .00066514  00000-0  47466-3 0  9998,2 53293  53.2149  28.6133 0004039   1.8816 294.5967 15.73188881 12545,6727.927,91.534,352.509,347.074,0.0
